CUTE-1 (CO-55)          
1 27844U 03031E   26160.23963294  .00000266  00000+0  13415-3 0  9995
2 27844  98.6735 168.8984 0009004 201.6668 158.4131 14.24330800190548
CUBESAT XI-IV (CO-57)   
1 27848U 03031J   26160.01325554  .00000222  00000+0  11652-3 0  9999
2 27848  98.6766 168.3941 0008561 222.5153 137.5363 14.23616414190218
CUBESAT XI-V            
1 28895U 05043F   26160.38487946  .00001300  00000+0  21228-3 0  9999
2 28895  98.2976 315.8433 0013165 226.6554 133.3557 14.72610449100600
CUTE-1.7+APD II (CO-65) 
1 32785U 08021C   26160.49259447  .00005238  00000+0  33171-3 0  9990
2 32785  97.8272 141.7515 0010344  61.4937 298.7331 15.09379566984036
CANX-2                  
1 32790U 08021H   26160.51234527  .00002929  00000+0  20759-3 0  9993
2 32790  97.8624 140.1415 0011902  73.4077 286.8455 15.05558112983658
SEEDS II (CO-66)        
1 32791U 08021J   26160.23552937  .00016060  00000+0  51422-3 0  9993
2 32791  97.7519 157.7552 0002294  29.0945 331.0423 15.32477826986071
SWISSCUBE               
1 35932U 09051B   26160.23220341  .00000884  00000+0  18430-3 0  9997
2 35932  98.4042  67.9819 0005536 231.7827 128.2876 14.62466323887992
BEESAT-1                
1 35933U 09051C   26160.51132019  .00000778  00000+0  16607-3 0  9999
2 35933  98.3972  67.9173 0003918 247.5852 112.4933 14.61708260888068
ITUPSAT1                
1 35935U 09051E   26160.49549253  .00000698  00000+0  15408-3 0  9999
2 35935  98.4055  67.1012 0006086 262.7226  97.3282 14.60429234887618
TISAT 1                 
1 36799U 10035E   26159.81960297  .00020138  00000+0  66607-3 0  9999
2 36799  98.0700 105.6282 0000185 170.3248 189.7995 15.31390446866423
AEROCUBE 4.5A           
1 38767U 12048K   26160.44094088  .00314306  43380-4  10194-2 0  9994
2 38767  64.6259  55.1328 0019597 217.0625 142.9182 15.90197537371424
STRAND-1                
1 39090U 13009E   26160.46722360  .00000269  00000+0  10495-3 0  9997
2 39090  98.3920 340.8917 0007447 251.7124 108.3252 14.37158714695956
BRITE-AUSTRIA           
1 39091U 13009F   26160.47676852  .00000162  00000+0  69668-4 0  9992
2 39091  98.3993 340.1036 0008967 262.5738  97.4429 14.36539039695946
NEE-01 PEGASO           
1 39151U 13018B   26160.36060529  .00002551  00000+0  24707-3 0  9993
2 39151  98.1215 304.2532 0012523 183.6303 176.4827 14.93624676709530
POPACS 2                
1 39269U 13055E   26160.39209110  .00010185  00000+0  17333-3 0  9997
2 39269  80.9908 153.1144 0417130 218.8379 138.2180 14.91020614662058
POPACS 3                
1 39270U 13055F   26160.49176895  .00010418  00000+0  24503-3 0  9999
2 39270  81.0013 237.5281 0552819  93.4066 273.0497 14.55979043637434
ZACUBE-1 (TSHEPISOSAT)  
1 39417U 13066B   26160.47518227  .00003043  00000+0  23849-3 0  9999
2 39417  97.8090 122.7702 0040069 274.7996  84.8653 15.01140367679579
WNISAT-1                
1 39423U 13066H   26160.38770992  .00000655  00000+0  12833-3 0  9992
2 39423  97.7193 310.0980 0161705 256.3531 101.9618 14.58049928665592
TRITON-1                
1 39427U 13066M   26160.52945491  .00001895  00000+0  23200-3 0  9997
2 39427  97.8248  70.5102 0088303 259.3023  99.8238 14.81680384672957
GOMX-1                  
1 39430U 13066Q   26160.49132678  .00001791  00000+0  27315-3 0  9998
2 39430  97.6494   1.4397 0130156 101.9869 259.5961 14.69431192668786
CUBEBUG-2 (LO-74)       
1 39440U 13066AA  26160.42661911  .00003357  00000+0  31222-3 0  9991
2 39440  97.8902 109.3723 0059152  54.2261 306.4438 14.93700352675835
NEE-02 KRYSAOR          
1 39441U 13066AB  26160.33408551  .00001823  00000+0  20357-3 0  9994
2 39441  97.8886  99.6051 0067737  95.3375 265.5574 14.86584933675037
FUNCUBE-1 (AO-73)       
1 39444U 13066AE  26160.43303962  .00004901  00000+0  30669-3 0  9995
2 39444  97.8268 131.7174 0034858 227.8994 131.9269 15.09396559678496
UWE-3                   
1 39446U 13066AG  26160.12782108  .00003499  00000+0  30256-3 0  9999
2 39446  97.8686 116.1479 0048769 348.2293  11.7784 14.96959057676378
BRITE-CA1 (TORONTO)     
1 40020U 14033L   26160.36004236  .00000618  00000+0  10079-3 0  9990
2 40020  97.9729 289.4327 0077422 302.5173  56.8569 14.72665836641063
DUCHIFAT-1              
1 40021U 14033M   26160.40712241  .00091547  00000+0  99932-3 0  9994
2 40021  98.0469 218.4842 0004339 129.4692 230.6949 15.63050538654538
NANOSATC-BR1            
1 40024U 14033Q   26160.03741032  .00014864  00000+0  49566-3 0  9991
2 40024  98.0734 191.7047 0003543 185.9906 174.1292 15.31195370652739
QB50P1                  
1 40025U 14033R   26160.50467360  .00007898  00000+0  39023-3 0  9999
2 40025  98.0973 171.1125 0007224 246.0164 114.0312 15.18143870651861
QB50P2                  
1 40032U 14033Y   26160.50513896  .00005791  00000+0  31341-3 0  9998
2 40032  98.0754 156.9078 0007196 187.9371 172.1746 15.15061119651504
PERSEUS-M2              
1 40037U 14033AD  26160.50247770  .00001077  00000+0  10273-3 0  9992
2 40037  97.9967 110.8873 0011336 333.5429  26.5211 14.95490709649637
